GPS BIIR-2  (PRN 13)    
1 24876U 97035A   25112.39903647  .00000092  00000+0  00000+0 0  9992
2 24876  55.7857 115.0354 0088718  53.6992 307.1498  2.00562539203516
GPS BIIR-4  (PRN 20)    
1 26360U 00025A   25112.78508363 -.00000064  00000+0  00000+0 0  9994
2 26360  54.8992  36.3007 0037024 232.5251 135.6289  2.00554304182841
GPS BIIR-5  (PRN 22)    
1 26407U 00040A   25112.73717124 -.00000010  00000+0  00000+0 0  9996
2 26407  54.9558 231.8690 0133648 298.5560 234.2408  2.00564954181510
GPS BIIR-8  (PRN 16)    
1 27663U 03005A   25110.79649095  .00000001  00000+0  00000+0 0  9999
2 27663  54.9918 231.7562 0143094  50.0675 301.2130  2.00557378162839
GPS BIIR-11 (PRN 19)    
1 28190U 04009A   25112.52982179 -.00000005  00000+0  00000+0 0  9991
2 28190  55.1870 292.6442 0103496 158.7068 160.6680  2.00569005154504
GPS BIIR-13 (PRN 02)    
1 28474U 04045A   25112.75493170 -.00000059  00000+0  00000+0 0  9998
2 28474  55.3423 341.8029 0166468 302.3562 241.0575  2.00558902149995
CRE (WAAS/PRN 138)      
1 28868U 05036A   25112.63841697 -.00000069  00000+0  00000+0 0  9995
2 28868   3.2315  81.8052 0003328 323.8905 287.7860  1.00271584 42235
GPS BIIRM-1 (PRN 17)    
1 28874U 05038A   25112.28407086 -.00000002  00000+0  00000+0 0  9992
2 28874  55.2319 290.1258 0132638 289.8980 237.7429  2.00564163143391
IOR-W (EGNOS/PRN 126)   
1 28899U 05044A   25112.27460454 -.00000255  00000+0  00000+0 0  9993
2 28899   4.5541  43.3503 0003012   6.6448  42.9444  1.00272759 71300
GPS BIIRM-2 (PRN 31)    
1 29486U 06042A   25112.77039213  .00000056  00000+0  00000+0 0  9993
2 29486  54.6799 168.0189 0103950  45.7103  13.6167  2.00565867135969
GPS BIIRM-3 (PRN 12)    
1 29601U 06052A   25112.61783678 -.00000009  00000+0  00000+0 0  9996
2 29601  55.0315 230.6850 0086724  85.8433 275.1386  2.00559930134970
GPS BIIRM-4 (PRN 15)    
1 32260U 07047A   25112.92785712  .00000065  00000+0  00000+0 0  9992
2 32260  53.7941  97.4217 0159230  80.6219 281.1828  2.00575235128381
COSMOS 2433 (720)       
1 32275U 07052A   25111.99117483 -.00000017  00000+0  00000+0 0  9992
2 32275  65.8025 330.0745 0000749 253.5483 106.4951  2.13104016136081
COSMOS 2432 (719)       
1 32276U 07052B   25112.32957317 -.00000016  00000+0  00000+0 0  9998
2 32276  65.8176 330.1829 0009710 337.2457 227.6876  2.13103177136114
GPS BIIRM-5 (PRN 29)    
1 32384U 07062A   25112.24541273 -.00000002  00000+0  00000+0 0  9995
2 32384  55.3790 291.0372 0030827 154.5390 203.3029  2.00564683127061
COSMOS 2434 (721)       
1 32393U 07065A   25112.61186674  .00000006  00000+0  00000+0 0  9992
2 32393  64.3146 206.1064 0001911  67.0339 300.7563  2.13101333134846
COSMOS 2436 (723)       
1 32395U 07065C   25112.39866343  .00000006  00000+0  00000+0 0  9997
2 32395  64.3232 206.1815 0016703   0.3325 337.9889  2.13100243134750
GPS BIIRM-6 (PRN 07)    
1 32711U 08012A   25112.33943445  .00000053  00000+0  00000+0 0  9997
2 32711  54.4579 166.7251 0197473 242.5326 115.5191  2.00556940125319
GPS BIIRM-8 (PRN 05)    
1 35752U 09043A   25112.47345094 -.00000049  00000+0  00000+0 0  9997
2 35752  55.9236  44.0235 0054887  75.4947  31.5271  2.00550695114928
COSMOS 2456 (730)       
1 36111U 09070A   25112.60857986  .00000062  00000+0  00000+0 0  9994
2 36111  64.7699  85.3462 0006320 311.2857 209.5396  2.13103646119507
COSMOS 2457 (733)       
1 36112U 09070B   25112.37967979  .00000062  00000+0  00000+0 0  9993
2 36112  64.7548  85.2063 0001943 191.5950 284.9174  2.13101103119468
COSMOS 2460 (732)       
1 36402U 10007C   25112.46364003 -.00000014  00000+0  00000+0 0  9994
2 36402  65.6523 328.6693 0002267  52.3284 124.6343  2.13106162117769
GPS BIIF-1  (PRN 25)    
1 36585U 10022A   25112.39982385 -.00000009  00000+0  00000+0 0  9998
2 36585  54.3525 225.5202 0121128  63.9665 112.2487  2.00567008109150
BEIDOU-2 IGSO-1 (C06)   
1 36828U 10036A   25112.78829477 -.00000092  00000+0  00000+0 0  9990
2 36828  54.2668 166.7615 0049149 216.0726 217.3915  1.00293137 53881
BEIDOU-2 G4 (C04)       
1 37210U 10057A   25112.77767822 -.00000109  00000+0  00000+0 0  9992
2 37210   2.6029  70.4419 0005157 204.6450  15.8665  1.00270069 53079
BEIDOU-2 IGSO-2 (C07)   
1 37256U 10068A   25111.41394272 -.00000182  00000+0  00000+0 0  9990
2 37256  48.3127 277.0424 0040575 210.7237 336.8805  1.00253381 52563
BEIDOU-2 IGSO-3 (C08)   
1 37384U 11013A   25112.61274287 -.00000186  00000+0  00000+0 0  9993
2 37384  61.8109  44.1400 0029923 180.8009 315.0490  1.00280100 51433
GSAT-8 (GAGAN/PRN 127)  
1 37605U 11022A   25112.82831211  .00000087  00000+0  00000+0 0  9997
2 37605   1.0418  87.1231 0004789 220.4387 256.8368  1.00273392 49001
BEIDOU-2 IGSO-4 (C09)   
1 37763U 11038A   25112.62191382 -.00000006  00000+0  00000+0 0  9997
2 37763  54.5699 169.4345 0141708 230.6058 127.8788  1.00288639 50422
GSAT0101 (GALILEO-PFM)  
1 37846U 11060A   25112.26699391 -.00000072  00000+0  00000+0 0  9990
2 37846  57.1017 353.1702 0003995  23.1747 336.8912  1.70475773 84074
GSAT0102 (GALILEO-FM2)  
1 37847U 11060B   25109.55877334 -.00000074  00000+0  00000+0 0  9996
2 37847  57.1035 353.2440 0004467   9.4494 173.8325  1.70475835 83903
COSMOS 2476 (744)       
1 37867U 11064A   25113.10724793  .00000064  00000+0  00000+0 0  9996
2 37867  65.0368  87.0784 0024157 242.1797 211.5214  2.13101481104862
COSMOS 2477 (745)       
1 37868U 11064B   25112.39744804  .00000067  00000+0  00000+0 0  9995
2 37868  65.0433  87.1779 0021367 243.8684 204.9871  2.13102978104793
COSMOS 2475 (743)       
1 37869U 11064C   25112.80782571  .00000066  00000+0  00000+0 0  9994
2 37869  65.0504  87.1817 0026998 256.2713 104.3946  2.13101739104815
BEIDOU-2 IGSO-5 (C10)   
1 37948U 11073A   25112.27843344 -.00000140  00000+0  00000+0 0  9993
2 37948  48.4475 276.7343 0102701 219.1408 269.9614  1.00261032 48917
LUCH 5A (SDCM/PRN 140)  
1 37951U 11074B   25112.70775566 -.00000040  00000+0  00000+0 0  9995
2 37951   7.6819  80.1031 0002686 323.1475 229.7037  1.00267530 48835
BEIDOU-2 G5 (C05)       
1 38091U 12008A   25112.82900715  .00000061  00000+0  00000+0 0  9990
2 38091   2.5254  71.2408 0011436 262.5377 234.5406  1.00274404 48154
BEIDOU-2 M3 (C11)       
1 38250U 12018A   25112.21620272 -.00000029  00000+0  00000+0 0  9993
2 38250  56.1106 319.0238 0020643 271.9879  87.8089  1.86233627 88108
BEIDOU-2 M4 (C12)       
1 38251U 12018B   25112.14786757 -.00000028  00000+0  00000+0 0  9996
2 38251  56.0147 318.2740 0011595 277.2152  82.6853  1.86232045 88106
SES-5 (EGNOS/PRN 136)   
1 38652U 12036A   25112.81842510  .00000036  00000+0  00000+0 0  9993
2 38652   0.0459 309.5205 0002110  82.9930 118.2218  1.00271685 40268
BEIDOU-2 M6 (C14)       
1 38775U 12050B   25112.93176878  .00000027  00000+0  00000+0 0  9995
2 38775  56.1755  76.8303 0014637 340.2097  19.7165  1.86230942 85832
GSAT-10 (GAGAN/PRN 128) 
1 38779U 12051B   25113.04808755 -.00000163  00000+0  00000+0 0  9991
2 38779   0.0615 261.3498 0007196 183.5722 226.7334  1.00272260 46087
GPS BIIF-3  (PRN 24)    
1 38833U 12053A   25112.52068575  .00000062  00000+0  00000+0 0  9991
2 38833  53.5312 160.8234 0163946  60.1535 301.5438  2.00562257 91002
GSAT0103 (GALILEO-FM3)  
1 38857U 12055A   25112.30658184  .00000078  00000+0  00000+0 0  9993
2 38857  55.5596 113.1054 0006037 284.3798  75.5804  1.70473485 77833
BEIDOU-2 G6 (C02)       
1 38953U 12059A   25112.83404622 -.00000171  00000+0  00000+0 0  9993
2 38953   3.3514  77.8272 0010541 309.2442 208.2858  1.00274518 45699
LUCH 5B (SDCM/PRN 125)  
1 38977U 12061A   25112.10020571 -.00000128  00000+0  00000+0 0  9991
2 38977   9.5686  53.9139 0001031 151.3359  24.9744  1.00272158 45388
COSMOS 2485 (747)       
1 39155U 13019A   25112.45550488  .00000068  00000+0  00000+0 0  9999
2 39155  65.1910  87.7485 0024421 238.0980 121.6611  2.13104469 93313
GPS BIIF-4  (PRN 27)    
1 39166U 13023A   25110.88772661  .00000003  00000+0  00000+0 0  9999
2 39166  54.8485 286.1409 0133331  47.5094 313.6042  2.00561470 87418
IRNSS-1A                
1 39199U 13034A   25111.97137700  .00000098  00000+0  00000+0 0  9991
2 39199  34.7820  69.9373 0017449 186.1993 358.7867  1.00273507 43147
GPS BIIF-5  (PRN 30)    
1 39533U 14008A   25112.38314909  .00000053  00000+0  00000+0 0  9990
2 39533  53.6094 166.4755 0077871 224.4605 134.9857  2.00560148 81797
ASTRA 5B (EGNOS/PRN 123)
1 39617U 14011B   25112.66804035  .00000139  00000+0  00000+0 0  9997
2 39617   0.0648 312.0194 0002884  58.6680 104.2884  1.00273728 40451
COSMOS 2492 (754)       
1 39620U 14012A   25111.94313594 -.00000014  00000+0  00000+0 0  9990
2 39620  65.5325 328.2187 0012357 330.4870  29.4935  2.13103184 86269
IRNSS-1B                
1 39635U 14017A   25111.47155149  .00000097  00000+0  00000+0 0  9999
2 39635  28.8289 247.5951 0021987 182.4155   4.5863  1.00276108 40567
LUCH 5V (SDCM/PRN 141)  
1 39727U 14023A   25112.83621822 -.00000262  00000+0  00000+0 0  9990
2 39727   4.0814  73.6818 0002659 337.7920 195.3824  1.00267131 40145
GPS BIIF-6  (PRN 06)    
1 39741U 14026A   25112.16660959 -.00000064  00000+0  00000+0 0  9999
2 39741  56.6602 347.8873 0035847 320.0610  39.7245  2.00578088 80095
COSMOS 2500 (755)       
1 40001U 14032A   25112.58765946 -.00000013  00000+0  00000+0 0  9999
2 40001  65.4684 327.9776 0005077 187.5864 172.4566  2.13105931 84490
GPS BIIF-7  (PRN 09)    
1 40105U 14045A   25112.25099996  .00000080  00000+0  00000+0 0  9990
2 40105  55.0881 105.2571 0028026 117.3309 242.9730  2.00557284 77635
GSAT0201 (GALILEO 5)    
1 40128U 14050A   25111.92890347 -.00000018  00000+0  00000+0 0  9995
2 40128  49.3351 290.6031 1626736 163.1219 203.0060  1.85519695 70509
GSAT0202 (GALILEO 6)    
1 40129U 14050B   25111.64702893 -.00000016  00000+0  00000+0 0  9991
2 40129  49.3509 289.6956 1626656 163.8898 201.9702  1.85520266 72665
IRNSS-1C                
1 40269U 14061A   25112.54827435 -.00000155  00000+0  00000+0 0  9992
2 40269   5.4473  97.4815 0020857   1.7592  32.0099  1.00273671 38478
